{"type": "FeatureCollection", "features": [ {"type": "Feature", "properties": {"norad_id": 35885, "name": "COSMOS 2251 DEB", "group": "cosmos-2251-debris", "lat": -4.81600173102909, "lon": -64.07282514759515, "alt_km": 754.7500966416274, "timestamp": "2025-12-11T08:58:27.522234+00:00", "meta": {"OBJECT_NAME": "COSMOS 2251 DEB", "OBJECT_ID": "1993-036ATY", "EPOCH": "2025-12-10T14:37:30.242784", "MEAN_MOTION": 14.37513931, "ECCENTRICITY": 0.0023076, "INCLINATION": 74.0281, "RA_OF_ASC_NODE": 298.717, "ARG_OF_PERICENTER": 19.6981, "MEAN_ANOMALY": 340.5059, "EPHEMERIS_TYPE": 0, "CLASSIFICATION_TYPE": "U", "NORAD_CAT_ID": 35885, "ELEMENT_SET_NO": 999, "REV_AT_EPOCH": 64985, "BSTAR": 0.00053652, "MEAN_MOTION_DOT": 1.586e-05, "MEAN_MOTION_DDOT": 0}, "tle": {"line1": "1 35885U 93036ATY 25344.60937781  .00001586  00000+0  53652-3 0  9992", "line2": "2 35885  74.0281 298.7170 0023076  19.6981 340.5059 14.37513931649854"}}, "geometry": {"type": "Point", "coordinates": [-64.07282514759515, -4.81600173102909]}}, {"type": "Feature", "properties": {"norad_id": 35888, "name": "COSMOS 2251 DEB", "group": "cosmos-2251-debris", "lat": -26.460865120547037, "lon": -172.54001747503682, "alt_km": 695.3592856698033, "timestamp": "2025-12-11T08:58:27.522245+00:00", "meta": {"OBJECT_NAME": "COSMOS 2251 DEB", "OBJECT_ID": "1993-036AUB", "EPOCH": "2025-12-10T18:51:31.727232", "MEAN_MOTION": 14.58307538, "ECCENTRICITY": 0.00482976, "INCLINATION": 74.0337, "RA_OF_ASC_NODE": 0.3865, "ARG_OF_PERICENTER": 133.126, "MEAN_ANOMALY": 227.3961, "EPHEMERIS_TYPE": 0, "CLASSIFICATION_TYPE": "U", "NORAD_CAT_ID": 35888, "ELEMENT_SET_NO": 999, "REV_AT_EPOCH": 86245, "BSTAR": 0.00056484468, "MEAN_MOTION_DOT": 2.626e-05, "MEAN_MOTION_DDOT": 0}, "tle": {"line1": "1 35888U 93036AUB 25344.78578388  .00002626  00000+0  56484-3 0  9990", "line2": "2 35888  74.0337   0.3865 0048297 133.1260 227.3961 14.58307538862455"}}, "geometry": {"type": "Point", "coordinates": [-172.54001747503682, -26.460865120547037]}}, {"type": "Feature", "properties": {"norad_id": 35890, "name": "COSMOS 2251 DEB", "group": "cosmos-2251-debris", "lat": -66.56000644128063, "lon": 106.9640536577377, "alt_km": 725.4882815349692, "timestamp": "2025-12-11T08:58:27.522255+00:00", "meta": {"OBJECT_NAME": "COSMOS 2251 DEB", "OBJECT_ID": "1993-036AUD", "EPOCH": "2025-12-08T00:44:22.816032", "MEAN_MOTION": 14.57358592, "ECCENTRICITY": 0.00535586, "INCLINATION": 73.9367, "RA_OF_ASC_NODE": 251.7044, "ARG_OF_PERICENTER": 16.9796, "MEAN_ANOMALY": 343.3143, "EPHEMERIS_TYPE": 0, "CLASSIFICATION_TYPE": "U", "NORAD_CAT_ID": 35890, "ELEMENT_SET_NO": 999, "REV_AT_EPOCH": 65082, "BSTAR": 0.0025122755, "MEAN_MOTION_DOT": 0.00011598, "MEAN_MOTION_DDOT": 0}, "tle": {"line1": "1 35890U 93036AUD 25342.03081963  .00011598  00000+0  25123-2 0  9990", "line2": "2 35890  73.9367 251.7044 0053558  16.9796 343.3143 14.57358592650820"}}, "geometry": {"type": "Point", "coordinates": [106.9640536577377, -66.56000644128063]}}, {"type": "Feature", "properties": {"norad_id": 35891, "name": "COSMOS 2251 DEB", "group": "cosmos-2251-debris", "lat": 41.27018394541815, "lon": -97.79200309098536, "alt_km": 463.07005510629097, "timestamp": "2025-12-11T08:58:27.522265+00:00", "meta": {"OBJECT_NAME": "COSMOS 2251 DEB", "OBJECT_ID": "1993-036AUE", "EPOCH": "2025-12-10T15:08:56.488704", "MEAN_MOTION": 15.33032056, "ECCENTRICITY": 0.0044173, "INCLINATION": 73.9885, "RA_OF_ASC_NODE": 98.397, "ARG_OF_PERICENTER": 228.9907, "MEAN_ANOMALY": 130.7474, "EPHEMERIS_TYPE": 0, "CLASSIFICATION_TYPE": "U", "NORAD_CAT_ID": 35891, "ELEMENT_SET_NO": 999, "REV_AT_EPOCH": 67188, "BSTAR": 0.0020263, "MEAN_MOTION_DOT": 0.00067253, "MEAN_MOTION_DDOT": 0}, "tle": {"line1": "1 35891U 93036AUE 25344.63120936  .00067253  00000+0  20263-2 0  9992", "line2": "2 35891  73.9885  98.3970 0044173 228.9907 130.7474 15.33032056671884"}}, "geometry": {"type": "Point", "coordinates": [-97.79200309098536, 41.27018394541815]}}, {"type": "Feature", "properties": {"norad_id": 35895, "name": "COSMOS 2251 DEB", "group": "cosmos-2251-debris", "lat": 17.440994790545993, "lon": -4.811235052725245, "alt_km": 837.6300807174548, "timestamp": "2025-12-11T08:58:27.522276+00:00", "meta": {"OBJECT_NAME": "COSMOS 2251 DEB", "OBJECT_ID": "1993-036AUJ", "EPOCH": "2025-12-10T07:11:31.170912", "MEAN_MOTION": 14.01506304, "ECCENTRICITY": 0.0198752, "INCLINATION": 74.05, "RA_OF_ASC_NODE": 351.8966, "ARG_OF_PERICENTER": 90.7812, "MEAN_ANOMALY": 271.61, "EPHEMERIS_TYPE": 0, "CLASSIFICATION_TYPE": "U", "NORAD_CAT_ID": 35895, "ELEMENT_SET_NO": 999, "REV_AT_EPOCH": 58978, "BSTAR": 0.001851, "MEAN_MOTION_DOT": 3.303e-05, "MEAN_MOTION_DDOT": 0}, "tle": {"line1": "1 35895U 93036AUJ 25344.29966633  .00003303  00000+0  18510-2 0  9998", "line2": "2 35895  74.0500 351.8966 0198752  90.7812 271.6100 14.01506304589783"}}, "geometry": {"type": "Point", "coordinates": [-4.811235052725245, 17.440994790545993]}}, {"type": "Feature", "properties": {"norad_id": 35898, "name": "COSMOS 2251 DEB", "group": "cosmos-2251-debris", "lat": 30.289152340145748, "lon": 110.56114904323589, "alt_km": 557.1351317015542, "timestamp": "2025-12-11T08:58:27.522286+00:00", "meta": {"OBJECT_NAME": "COSMOS 2251 DEB", "OBJECT_ID": "1993-036AUM", "EPOCH": "2025-12-11T03:33:58.696128", "MEAN_MOTION": 14.94658859, "ECCENTRICITY": 0.007922, "INCLINATION": 73.9916, "RA_OF_ASC_NODE": 300.6702, "ARG_OF_PERICENTER": 84.5945, "MEAN_ANOMALY": 290.8859, "EPHEMERIS_TYPE": 0, "CLASSIFICATION_TYPE": "U", "NORAD_CAT_ID": 35898, "ELEMENT_SET_NO": 999, "REV_AT_EPOCH": 66786, "BSTAR": 0.0010875, "MEAN_MOTION_DOT": 0.00012532, "MEAN_MOTION_DDOT": 0}, "tle": {"line1": "1 35898U 93036AUM 25345.14859602  .00012532  00000+0  10875-2 0  9993", "line2": "2 35898  73.9916 300.6702 0079220  84.5945 290.8859 14.94658859667866"}}, "geometry": {"type": "Point", "coordinates": [110.56114904323589, 30.289152340145748]}}, {"type": "Feature", "properties": {"norad_id": 35901, "name": "COSMOS 2251 DEB", "group": "cosmos-2251-debris", "lat": 73.9758124992737, "lon": 119.02258114015369, "alt_km": 539.128324266736, "timestamp": "2025-12-11T08:58:27.522297+00:00", "meta": {"OBJECT_NAME": "COSMOS 2251 DEB", "OBJECT_ID": "1993-036AUQ", "EPOCH": "2025-12-07T10:36:21.692736", "MEAN_MOTION": 15.06319673, "ECCENTRICITY": 0.00066034, "INCLINATION": 74.0121, "RA_OF_ASC_NODE": 33.7639, "ARG_OF_PERICENTER": 0.5644, "MEAN_ANOMALY": 13.1472, "EPHEMERIS_TYPE": 0, "CLASSIFICATION_TYPE": "U", "NORAD_CAT_ID": 35901, "ELEMENT_SET_NO": 999, "REV_AT_EPOCH": 86047, "BSTAR": 0.0047775116, "MEAN_MOTION_DOT": 0.0007096, "MEAN_MOTION_DDOT": 0}, "tle": {"line1": "1 35901U 93036AUQ 25341.44191774  .00070960  00000+0  47775-2 0  9994", "line2": "2 35901  74.0121  33.7639 0006603   0.5644  13.1472 15.06319673860474"}}, "geometry": {"type": "Point", "coordinates": [119.02258114015369, 73.9758124992737]}}, {"type": "Feature", "properties": {"norad_id": 35902, "name": "COSMOS 2251 DEB", "group": "cosmos-2251-debris", "lat": 48.476101260536204, "lon": -104.00931934196328, "alt_km": 759.321985239977, "timestamp": "2025-12-11T08:58:27.522307+00:00", "meta": {"OBJECT_NAME": "COSMOS 2251 DEB", "OBJECT_ID": "1993-036AUR", "EPOCH": "2025-12-10T09:10:56.598528", "MEAN_MOTION": 14.26883589, "ECCENTRICITY": 0.01019996, "INCLINATION": 73.9827, "RA_OF_ASC_NODE": 238.8593, "ARG_OF_PERICENTER": 354.0936, "MEAN_ANOMALY": 5.8999, "EPHEMERIS_TYPE": 0, "CLASSIFICATION_TYPE": "U", "NORAD_CAT_ID": 35902, "ELEMENT_SET_NO": 999, "REV_AT_EPOCH": 61096, "BSTAR": 0.0017323625, "MEAN_MOTION_DOT": 4.42e-05, "MEAN_MOTION_DDOT": 0}, "tle": {"line1": "1 35902U 93036AUR 25344.38259952  .00004420  00000+0  17324-2 0  9999", "line2": "2 35902  73.9827 238.8593 0101999 354.0936   5.8999 14.26883589610960"}}, "geometry": {"type": "Point", "coordinates": [-104.00931934196328, 48.476101260536204]}}, {"type": "Feature", "properties": {"norad_id": 35905, "name": "COSMOS 2251 DEB", "group": "cosmos-2251-debris", "lat": 9.346460411965161, "lon": -143.71288165812092, "alt_km": 555.4691614063395, "timestamp": "2025-12-11T08:58:27.522317+00:00", "meta": {"OBJECT_NAME": "COSMOS 2251 DEB", "OBJECT_ID": "1993-036AUU", "EPOCH": "2025-12-10T21:43:08.354784", "MEAN_MOTION": 14.98979266, "ECCENTRICITY": 0.0090796, "INCLINATION": 74.0316, "RA_OF_ASC_NODE": 214.5374, "ARG_OF_PERICENTER": 295.0464, "MEAN_ANOMALY": 64.1316, "EPHEMERIS_TYPE": 0, "CLASSIFICATION_TYPE": "U", "NORAD_CAT_ID": 35905, "ELEMENT_SET_NO": 999, "REV_AT_EPOCH": 88555, "BSTAR": 0.0008013, "MEAN_MOTION_DOT": 0.0001055, "MEAN_MOTION_DDOT": 0}, "tle": {"line1": "1 35905U 93036AUU 25344.90495781  .00010550  00000+0  80130-3 0  9999", "line2": "2 35905  74.0316 214.5374 0090796 295.0464  64.1316 14.98979266885555"}}, "geometry": {"type": "Point", "coordinates": [-143.71288165812092, 9.346460411965161]}}, {"type": "Feature", "properties": {"norad_id": 35959, "name": "COSMOS 2251 DEB", "group": "cosmos-2251-debris", "lat": 71.40221062343544, "lon": 76.25651277916627, "alt_km": 763.9708812066174, "timestamp": "2025-12-11T08:58:27.522328+00:00", "meta": {"OBJECT_NAME": "COSMOS 2251 DEB", "OBJECT_ID": "1993-036AUZ", "EPOCH": "2025-12-10T15:46:18.097824", "MEAN_MOTION": 14.34133679, "ECCENTRICITY": 0.00214667, "INCLINATION": 74.0324, "RA_OF_ASC_NODE": 315.8763, "ARG_OF_PERICENTER": 36.9874, "MEAN_ANOMALY": 323.2753, "EPHEMERIS_TYPE": 0, "CLASSIFICATION_TYPE": "U", "NORAD_CAT_ID": 35959, "ELEMENT_SET_NO": 999, "REV_AT_EPOCH": 84898, "BSTAR": 0.00020861744, "MEAN_MOTION_DOT": 5.59e-06, "MEAN_MOTION_DDOT": 0}, "tle": {"line1": "1 35959U 93036AUZ 25344.65715391  .00000559  00000+0  20862-3 0  9996", "line2": "2 35959  74.0324 315.8763 0021466  36.9874 323.2753 14.34133679848985"}}, "geometry": {"type": "Point", "coordinates": [76.25651277916627, 71.40221062343544]}}]}